FLOCK 4BE-18            
1 60480U 24149N   26116.78220157  .00023270  00000+0  58054-3 0  9994
2 60480  97.3729 200.0410 0005022  92.3220 267.8601 15.40184890 94396
FLOCK 4BE-7             
1 60481U 24149P   26117.18591167  .00028029  00000+0  74497-3 0  9998
2 60481  97.3764 199.9044 0004191  96.6265 263.5457 15.38208812 94409
FLOCK 4BE-26            
1 60484U 24149S   26117.50283723  .00152709  00000+0  21898-2 0  9992
2 60484  97.3685 201.4570 0002630 140.9259 219.2186 15.55613603 94559
FLOCK 4BE-36            
1 60486U 24149U   26117.49748797  .00018778  00000+0  45503-3 0  9996
2 60486  97.3744 201.3826 0005118  98.4550 261.7277 15.41113908 94545
FLOCK 4BE-25            
1 60487U 24149V   26117.47476046  .00018046  00000+0  49209-3 0  9995
2 60487  97.3801 200.3339 0003691  96.0691 264.0975 15.37506231 94442
FLOCK 4BE-31            
1 60488U 24149W   26117.50257975  .00021133  00000+0  49447-3 0  9993
2 60488  97.3803 202.1149 0004023 102.1120 258.0578 15.42152468 94560
FLOCK 4BE-20            
1 60489U 24149X   26117.21712838  .00017950  00000+0  50206-3 0  9993
2 60489  97.3703 199.0836 0005256  97.4528 262.7313 15.36710976 94380
FLOCK 4BE-23            
1 60490U 24149Y   26117.19521613  .00015632  00000+0  44289-3 0  9990
2 60490  97.3781 199.4093 0005098 103.7132 256.4680 15.36339639 94361
FLOCK 4BE-15            
1 60491U 24149Z   26117.48785044  .00105621  00000+0  19254-2 0  9994
2 60491  97.3714 201.3856 0005504 170.2151 189.9208 15.49062257 94550
FLOCK 4BE-17            
1 60492U 24149AA  26117.18096124  .00020952  00000+0  55660-3 0  9991
2 60492  97.3778 200.2073 0004433  96.1448 264.0302 15.38282318 94410
FLOCK 4BE-22            
1 60494U 24149AC  26117.46726420  .00021394  00000+0  54416-3 0  9992
2 60494  97.3736 200.6101 0005056 100.4304 259.7512 15.39610577 94499
FLOCK 4BE-34            
1 60495U 24149AD  26117.22542053  .00020613  00000+0  52337-3 0  9998
2 60495  97.3782 201.1544 0005361 108.1951 251.9878 15.39672018 94486
FLOCK 4BE-32            
1 60497U 24149AF  26117.22251210  .00021154  00000+0  52409-3 0  9993
2 60497  97.3722 200.6690 0005278 106.0049 254.1779 15.40415940 94486
FLOCK 4BE-30            
1 60499U 24149AH  26117.47444735  .00111026  00000+0  22469-2 0  9998
2 60499  97.3791 201.7340 0003545 166.1148 194.0199 15.46021200 93913
FLOCK 4BE-11            
1 60501U 24149AK  26116.79055813  .00021713  00000+0  52329-3 0  9993
2 60501  97.3701 200.4120 0005357 107.0111 253.1723 15.41247680 94432
FLOCK 4BE-24            
1 60505U 24149AP  26117.49080252  .00019398  00000+0  46900-3 0  9994
2 60505  97.3722 201.3646 0005451 113.3626 246.8194 15.41173126 94555
