[{"OBJECT_NAME":"FLOCK 4BE-18","OBJECT_ID":"2024-149N","EPOCH":"2026-04-26T18:46:22.215648","MEAN_MOTION":15.4018489,"ECCENTRICITY":0.00050228,"INCLINATION":97.3729,"RA_OF_ASC_NODE":200.041,"ARG_OF_PERICENTER":92.322,"MEAN_ANOMALY":267.8601,"EPHEMERIS_TYPE":0,"CLASSIFICATION_TYPE":"U","NORAD_CAT_ID":60480,"ELEMENT_SET_NO":999,"REV_AT_EPOCH":9439,"BSTAR":0.00058053977,"MEAN_MOTION_DOT":0.0002327,"MEAN_MOTION_DDOT":0},{"OBJECT_NAME":"FLOCK 4BE-7","OBJECT_ID":"2024-149P","EPOCH":"2026-04-27T04:27:42.768288","MEAN_MOTION":15.38208812,"ECCENTRICITY":0.00041918,"INCLINATION":97.3764,"RA_OF_ASC_NODE":199.9044,"ARG_OF_PERICENTER":96.6265,"MEAN_ANOMALY":263.5457,"EPHEMERIS_TYPE":0,"CLASSIFICATION_TYPE":"U","NORAD_CAT_ID":60481,"ELEMENT_SET_NO":999,"REV_AT_EPOCH":9440,"BSTAR":0.0007449706,"MEAN_MOTION_DOT":0.00028029,"MEAN_MOTION_DDOT":0},{"OBJECT_NAME":"FLOCK 4BE-26","OBJECT_ID":"2024-149S","EPOCH":"2026-04-27T12:04:05.136672","MEAN_MOTION":15.55613603,"ECCENTRICITY":0.000263,"INCLINATION":97.3685,"RA_OF_ASC_NODE":201.457,"ARG_OF_PERICENTER":140.9259,"MEAN_ANOMALY":219.2186,"EPHEMERIS_TYPE":0,"CLASSIFICATION_TYPE":"U","NORAD_CAT_ID":60484,"ELEMENT_SET_NO":999,"REV_AT_EPOCH":9455,"BSTAR":0.0021898,"MEAN_MOTION_DOT":0.00152709,"MEAN_MOTION_DDOT":0},{"OBJECT_NAME":"FLOCK 4BE-36","OBJECT_ID":"2024-149U","EPOCH":"2026-04-27T11:56:22.960608","MEAN_MOTION":15.41113908,"ECCENTRICITY":0.0005118,"INCLINATION":97.3744,"RA_OF_ASC_NODE":201.3826,"ARG_OF_PERICENTER":98.455,"MEAN_ANOMALY":261.7277,"EPHEMERIS_TYPE":0,"CLASSIFICATION_TYPE":"U","NORAD_CAT_ID":60486,"ELEMENT_SET_NO":999,"REV_AT_EPOCH":9454,"BSTAR":0.00045503,"MEAN_MOTION_DOT":0.00018778,"MEAN_MOTION_DDOT":0},{"OBJECT_NAME":"FLOCK 4BE-25","OBJECT_ID":"2024-149V","EPOCH":"2026-04-27T11:23:39.303744","MEAN_MOTION":15.37506231,"ECCENTRICITY":0.0003691,"INCLINATION":97.3801,"RA_OF_ASC_NODE":200.3339,"ARG_OF_PERICENTER":96.0691,"MEAN_ANOMALY":264.0975,"EPHEMERIS_TYPE":0,"CLASSIFICATION_TYPE":"U","NORAD_CAT_ID":60487,"ELEMENT_SET_NO":999,"REV_AT_EPOCH":9444,"BSTAR":0.00049209,"MEAN_MOTION_DOT":0.00018046,"MEAN_MOTION_DDOT":0},{"OBJECT_NAME":"FLOCK 4BE-31","OBJECT_ID":"2024-149W","EPOCH":"2026-04-27T12:03:42.890400","MEAN_MOTION":15.42152468,"ECCENTRICITY":0.0004023,"INCLINATION":97.3803,"RA_OF_ASC_NODE":202.1149,"ARG_OF_PERICENTER":102.112,"MEAN_ANOMALY":258.0578,"EPHEMERIS_TYPE":0,"CLASSIFICATION_TYPE":"U","NORAD_CAT_ID":60488,"ELEMENT_SET_NO":999,"REV_AT_EPOCH":9456,"BSTAR":0.00049447,"MEAN_MOTION_DOT":0.00021133,"MEAN_MOTION_DDOT":0},{"OBJECT_NAME":"FLOCK 4BE-20","OBJECT_ID":"2024-149X","EPOCH":"2026-04-27T05:12:39.892032","MEAN_MOTION":15.36710976,"ECCENTRICITY":0.0005256,"INCLINATION":97.3703,"RA_OF_ASC_NODE":199.0836,"ARG_OF_PERICENTER":97.4528,"MEAN_ANOMALY":262.7313,"EPHEMERIS_TYPE":0,"CLASSIFICATION_TYPE":"U","NORAD_CAT_ID":60489,"ELEMENT_SET_NO":999,"REV_AT_EPOCH":9438,"BSTAR":0.00050206,"MEAN_MOTION_DOT":0.0001795,"MEAN_MOTION_DDOT":0},{"OBJECT_NAME":"FLOCK 4BE-23","OBJECT_ID":"2024-149Y","EPOCH":"2026-04-27T04:41:06.673632","MEAN_MOTION":15.36339639,"ECCENTRICITY":0.00050987,"INCLINATION":97.3781,"RA_OF_ASC_NODE":199.4093,"ARG_OF_PERICENTER":103.7132,"MEAN_ANOMALY":256.468,"EPHEMERIS_TYPE":0,"CLASSIFICATION_TYPE":"U","NORAD_CAT_ID":60490,"ELEMENT_SET_NO":999,"REV_AT_EPOCH":9436,"BSTAR":0.0004428878,"MEAN_MOTION_DOT":0.00015632,"MEAN_MOTION_DDOT":0},{"OBJECT_NAME":"FLOCK 4BE-15","OBJECT_ID":"2024-149Z","EPOCH":"2026-04-27T11:42:30.278016","MEAN_MOTION":15.49062257,"ECCENTRICITY":0.0005504,"INCLINATION":97.3714,"RA_OF_ASC_NODE":201.3856,"ARG_OF_PERICENTER":170.2151,"MEAN_ANOMALY":189.9208,"EPHEMERIS_TYPE":0,"CLASSIFICATION_TYPE":"U","NORAD_CAT_ID":60491,"ELEMENT_SET_NO":999,"REV_AT_EPOCH":9455,"BSTAR":0.0019254,"MEAN_MOTION_DOT":0.00105621,"MEAN_MOTION_DDOT":0},{"OBJECT_NAME":"FLOCK 4BE-17","OBJECT_ID":"2024-149AA","EPOCH":"2026-04-27T04:20:35.051136","MEAN_MOTION":15.38282318,"ECCENTRICITY":0.00044334,"INCLINATION":97.3778,"RA_OF_ASC_NODE":200.2073,"ARG_OF_PERICENTER":96.1448,"MEAN_ANOMALY":264.0302,"EPHEMERIS_TYPE":0,"CLASSIFICATION_TYPE":"U","NORAD_CAT_ID":60492,"ELEMENT_SET_NO":999,"REV_AT_EPOCH":9441,"BSTAR":0.00055659798,"MEAN_MOTION_DOT":0.00020952,"MEAN_MOTION_DDOT":0},{"OBJECT_NAME":"FLOCK 4BE-22","OBJECT_ID":"2024-149AC","EPOCH":"2026-04-27T11:12:51.626880","MEAN_MOTION":15.39610577,"ECCENTRICITY":0.0005056,"INCLINATION":97.3736,"RA_OF_ASC_NODE":200.6101,"ARG_OF_PERICENTER":100.4304,"MEAN_ANOMALY":259.7512,"EPHEMERIS_TYPE":0,"CLASSIFICATION_TYPE":"U","NORAD_CAT_ID":60494,"ELEMENT_SET_NO":999,"REV_AT_EPOCH":9449,"BSTAR":0.00054416,"MEAN_MOTION_DOT":0.00021394,"MEAN_MOTION_DDOT":0},{"OBJECT_NAME":"FLOCK 4BE-34","OBJECT_ID":"2024-149AD","EPOCH":"2026-04-27T05:24:36.333792","MEAN_MOTION":15.39672018,"ECCENTRICITY":0.0005361,"INCLINATION":97.3782,"RA_OF_ASC_NODE":201.1544,"ARG_OF_PERICENTER":108.1951,"MEAN_ANOMALY":251.9878,"EPHEMERIS_TYPE":0,"CLASSIFICATION_TYPE":"U","NORAD_CAT_ID":60495,"ELEMENT_SET_NO":999,"REV_AT_EPOCH":9448,"BSTAR":0.00052337,"MEAN_MOTION_DOT":0.00020613,"MEAN_MOTION_DDOT":0},{"OBJECT_NAME":"FLOCK 4BE-32","OBJECT_ID":"2024-149AF","EPOCH":"2026-04-27T05:20:25.045440","MEAN_MOTION":15.4041594,"ECCENTRICITY":0.00052789,"INCLINATION":97.3722,"RA_OF_ASC_NODE":200.669,"ARG_OF_PERICENTER":106.0049,"MEAN_ANOMALY":254.1779,"EPHEMERIS_TYPE":0,"CLASSIFICATION_TYPE":"U","NORAD_CAT_ID":60497,"ELEMENT_SET_NO":999,"REV_AT_EPOCH":9448,"BSTAR":0.00052409173,"MEAN_MOTION_DOT":0.00021154,"MEAN_MOTION_DDOT":0},{"OBJECT_NAME":"FLOCK 4BE-30","OBJECT_ID":"2024-149AH","EPOCH":"2026-04-27T11:23:12.251040","MEAN_MOTION":15.460212,"ECCENTRICITY":0.0003545,"INCLINATION":97.3791,"RA_OF_ASC_NODE":201.734,"ARG_OF_PERICENTER":166.1148,"MEAN_ANOMALY":194.0199,"EPHEMERIS_TYPE":0,"CLASSIFICATION_TYPE":"U","NORAD_CAT_ID":60499,"ELEMENT_SET_NO":999,"REV_AT_EPOCH":9391,"BSTAR":0.0022469,"MEAN_MOTION_DOT":0.00111026,"MEAN_MOTION_DDOT":0},{"OBJECT_NAME":"FLOCK 4BE-11","OBJECT_ID":"2024-149AK","EPOCH":"2026-04-26T18:58:24.222432","MEAN_MOTION":15.4124768,"ECCENTRICITY":0.00053572,"INCLINATION":97.3701,"RA_OF_ASC_NODE":200.412,"ARG_OF_PERICENTER":107.0111,"MEAN_ANOMALY":253.1723,"EPHEMERIS_TYPE":0,"CLASSIFICATION_TYPE":"U","NORAD_CAT_ID":60501,"ELEMENT_SET_NO":999,"REV_AT_EPOCH":9443,"BSTAR":0.00052328553,"MEAN_MOTION_DOT":0.00021713,"MEAN_MOTION_DDOT":0},{"OBJECT_NAME":"FLOCK 4BE-24","OBJECT_ID":"2024-149AP","EPOCH":"2026-04-27T11:46:45.337728","MEAN_MOTION":15.41173126,"ECCENTRICITY":0.0005451,"INCLINATION":97.3722,"RA_OF_ASC_NODE":201.3646,"ARG_OF_PERICENTER":113.3626,"MEAN_ANOMALY":246.8194,"EPHEMERIS_TYPE":0,"CLASSIFICATION_TYPE":"U","NORAD_CAT_ID":60505,"ELEMENT_SET_NO":999,"REV_AT_EPOCH":9455,"BSTAR":0.000469,"MEAN_MOTION_DOT":0.00019398,"MEAN_MOTION_DDOT":0}]
